# From MPO 66046
65407 2002 RP120,e,118.9579,39.2684,357.9687,54.66541,0.0024386,0.95479316,12.3035,07/31.0/2016,2000,H12.3,0.15
# From MPO337762
65489 Ceto,e,22.2660,171.8561,320.1574,102.8852,0.0009444,0.82629251,9.2989,07/31.0/2016,2000,H 6.4,0.15
# From MPO157277
66452 1999 OF4,e,2.6636,134.4290,86.0178,44.81053,0.0032857,0.06732266,108.4481,07/31.0/2016,2000,H 6.9,0.15
# From MPO253782
66652 Borasisi,e,0.5630,84.7437,195.0912,43.59079,0.0034246,0.08678364,60.4846,07/31.0/2016,2000,H 5.9,0.15
# From MPO157278
69986 1998 WW24,e,13.9526,234.0320,146.5139,39.40045,0.0039852,0.22304111,43.8182,07/31.0/2016,2000,H 7.9,0.15
# From MPO366054
69987 1998 WA25,e,1.0458,136.4385,211.4329,42.44256,0.0035645,0.01922515,82.8913,07/31.0/2016,2000,H 7.0,0.15
# From MPO337790
69988 1998 WA31,e,9.4751,20.8213,309.2070,54.91408,0.0024220,0.42660087,44.0651,07/31.0/2016,2000,H 7.4,0.15
# From MPO157278
69990 1998 WU31,e,6.5878,237.2119,141.8405,39.19742,0.0040162,0.18443617,47.0108,07/31.0/2016,2000,H 8.3,0.15
# From MPO313943
73480 2002 PN34,e,16.6373,299.1989,358.1026,30.77990,0.0057717,0.56777562,31.0656,07/31.0/2016,2000,H 8.5,0.15
# From MPO140069
76803 2000 PK30,e,33.7657,127.3934,125.5035,38.52133,0.0041224,0.12368334,66.2414,07/31.0/2016,2000,H 7.3,0.15
# From MPO157282
78799 2002 XW93,e,14.3824,46.9266,247.2773,37.49985,0.0042920,0.24771542,141.2697,07/31.0/2016,2000,H 5.5,0.15
# From MPO366155
79360 Sila-Nunam,e,2.2433,304.3561,226.1090,44.06952,0.0033690,0.01591504,329.0932,07/31.0/2016,2000,H 5.2,0.15
# From MPO355696
79969 1999 CP133,e,3.1731,334.1918,160.8627,35.13117,0.0047333,0.08676411,48.8902,07/31.0/2016,2000,H 7.4,0.15
# From MPO337859
79978 1999 CC158,e,18.7050,337.0208,102.4779,54.19464,0.0024704,0.27643617,42.7706,07/31.0/2016,2000,H 5.7,0.15
# From MPO375558
79983 1999 DF9,e,9.8003,334.8185,178.3141,46.77666,0.0030808,0.14885627,18.4435,07/31.0/2016,2000,H 6.0,0.15
# From MPO337867
80806 2000 CM105,e,3.7538,45.7519,9.7445,42.40061,0.0035698,0.06418407,93.6201,07/31.0/2016,2000,H 6.6,0.15
# From MPO375572
82075 2000 YW134,e,19.7873,126.9509,317.0358,58.13558,0.0022235,0.29055856,30.2012,07/31.0/2016,2000,H 4.9,0.15
# From MPO375572
82155 2001 FZ173,e,12.6999,2.3534,199.3548,87.08286,0.0012128,0.62786467,2.5036,07/31.0/2016,2000,H 6.2,0.15
# From MPO157284
82157 2001 FM185,e,5.3591,150.7049,108.6939,38.83582,0.0040724,0.06107406,291.6916,07/31.0/2016,2000,H 6.9,0.15
# From MPO337875
82158 2001 FP185,e,30.7558,179.2990,7.0460,226.8567,0.0002885,0.84897454,1.3222,07/31.0/2016,2000,H 6.2,0.15
# From MPO302490
83982 Crantor,e,12.7807,117.4028,92.8364,19.41698,0.0115194,0.27771006,59.6488,07/31.0/2016,2000,H 8.8,0.15
# From MPO355722
84522 2002 TC302,e,35.1162,23.9081,87.2848,55.17506,0.0024049,0.29369408,322.3499,07/31.0/2016,2000,H 3.8,0.15
# From MPO337898
84719 2002 VR128,e,14.0427,23.1597,287.6540,39.29554,0.0040012,0.26314501,74.3955,07/31.0/2016,2000,H 5.4,0.15
# From MPO371675
84922 2003 VS2,e,14.7828,302.7662,113.9239,39.37858,0.0039885,0.07430705,16.7341,07/31.0/2016,2000,H 4.2,0.15
# From MPO355729
85627 1998 HP151,e,1.5125,55.9360,248.6225,44.15917,0.0033587,0.08807483,317.1592,07/31.0/2016,2000,H 7.4,0.15
# From MPO157285
85633 1998 KR65,e,1.1900,101.9499,337.4191,43.38664,0.0034488,0.03075974,249.2574,07/31.0/2016,2000,H 6.7,0.15
# From MPO157285
86047 1999 OY3,e,24.2458,301.8374,303.9441,43.74553,0.0034065,0.17140651,62.8552,07/31.0/2016,2000,H 6.8,0.15
# From MPO253869
86177 1999 RY215,e,22.2063,326.6489,51.1831,45.03069,0.0032617,0.23335980,347.0256,07/31.0/2016,2000,H 7.1,0.15
# From MPO157286
87269 2000 OO67,e,20.0717,142.3770,212.2981,510.7145,0.0000854,0.95934238,0.3526,07/31.0/2016,2000,H 9.2,0.15
# From MPO164103
87555 2000 QB243,e,6.7894,330.1847,284.1131,34.78911,0.0048033,0.56328712,42.6052,07/31.0/2016,2000,H 8.3,0.15
# From MPO157286
88267 2001 KE76,e,0.4978,113.0999,44.2382,43.13352,0.0034792,0.02637502,97.0431,07/31.0/2016,2000,H 7.2,0.15
# From MPO186592
88268 2001 KK76,e,1.8863,86.9624,220.1963,42.59018,0.0035460,0.01678055,321.9442,07/31.0/2016,2000,H 6.3,0.15
# From MPO157286
88269 2001 KF77,e,4.3575,14.5403,265.9493,26.03245,0.0074205,0.23991839,357.9879,07/31.0/2016,2000,H 9.5,0.15
# From MPO253880
88611 Teharonhiawako,e,2.5814,304.7459,237.7529,43.86160,0.0033929,0.03152939,157.7655,07/31.0/2016,2000,H 5.8,0.15
# From MPO371714
90377 Sedna,e,11.9288,144.5263,311.5202,499.0789,0.0000884,0.84763932,358.0615,07/31.0/2016,2000,H 1.6,0.15
# From MPO375632
90482 Orcus,e,20.5707,268.6223,72.7555,39.45459,0.0039770,0.21839640,175.7274,07/31.0/2016,2000,H 2.2,0.15
# From MPO337935
90568 2004 GV9,e,21.9580,250.6321,293.8927,42.21614,0.0035932,0.08213530,34.6690,07/31.0/2016,2000,H 4.0,0.15
# From MPO186595
91133 1998 HK151,e,5.9352,50.1809,180.8110,39.50709,0.0039691,0.23165443,25.7237,07/31.0/2016,2000,H 7.6,0.15
# From MPO366273
91205 1998 US43,e,10.6238,223.9219,140.7823,39.21737,0.0040132,0.13011382,60.6124,07/31.0/2016,2000,H 8.0,0.15
# From MPO366278
91554 1999 RZ215,e,25.5456,341.6750,335.3737,100.7407,0.0009748,0.69301525,6.3724,07/31.0/2016,2000,H 7.8,0.15
# From MPO157288
95625 2002 GX32,e,13.9210,28.0899,186.0113,53.47912,0.0025202,0.38114033,17.9547,07/31.0/2016,2000,H 7.4,0.15
# From MPO375670
95626 2002 GZ32,e,15.0256,107.2580,154.7489,23.16971,0.0088374,0.22244505,350.6016,07/31.0/2016,2000,H 7.2,0.15
# From MPO355922
118228 1996 TQ66,e,14.6851,10.8343,19.8784,39.30583,0.0039996,0.11921528,25.4563,07/31.0/2016,2000,H 6.9,0.15
# From MPO341358
118378 1999 HT11,e,5.0514,87.9273,186.1348,44.01252,0.0033755,0.11631300,324.8276,07/31.0/2016,2000,H 7.6,0.15
# From MPO 87914
118379 1999 HC12,e,15.3176,57.0120,96.4407,45.57302,0.0032036,0.23682630,62.8521,07/31.0/2016,2000,H 7.6,0.15
# From MPO157301
118698 2000 OY51,e,11.2139,285.0280,82.3164,43.50078,0.0034353,0.22960406,327.3513,07/31.0/2016,2000,H 8.2,0.15
# From MPO157301
118702 2000 OM67,e,23.3878,327.1510,348.3630,97.43459,0.0010248,0.59821644,10.3934,07/31.0/2016,2000,H 6.8,0.15
# From MPO 88168
119066 2001 KJ76,e,6.7236,47.6069,269.1193,43.80141,0.0033999,0.07899159,312.3015,07/31.0/2016,2000,H 6.8,0.15
# From MPO157301
119067 2001 KP76,e,7.1936,42.7352,303.1414,43.65411,0.0034172,0.18756341,296.5788,07/31.0/2016,2000,H 6.6,0.15
# From MPO 88168
119068 2001 KC77,e,12.8895,57.7906,179.8983,55.40862,0.0023897,0.36127910,13.7990,07/31.0/2016,2000,H 6.7,0.15
# From MPO186631
119069 2001 KN77,e,2.3573,45.3186,279.6666,39.23902,0.0040098,0.24029922,318.6502,07/31.0/2016,2000,H 7.1,0.15
# From MPO 88168
119070 2001 KP77,e,3.3119,21.9022,217.8040,43.83904,0.0033956,0.17894871,18.5933,07/31.0/2016,2000,H 7.0,0.15
# From MPO157301
119315 2001 SQ73,e,17.4416,16.3385,303.7191,17.44910,0.0135221,0.17434042,116.2403,07/31.0/2016,2000,H 9.6,0.15
# From MPO314198
119473 2001 UO18,e,3.6782,36.3968,47.9372,39.48598,0.0039723,0.28432656,342.7971,07/31.0/2016,2000,H 7.8,0.15
# From MPO338100
119878 2002 CY224,e,15.7125,317.0141,152.2581,54.28816,0.0024640,0.34913104,22.7438,07/31.0/2016,2000,H 6.1,0.15
# From MPO338101
119951 2002 KX14,e,0.4026,286.7573,69.6077,38.92482,0.0040585,0.04163960,264.1385,07/31.0/2016,2000,H 4.6,0.15
# From MPO338101
119956 2002 PA149,e,4.0494,105.5799,151.8445,43.42263,0.0034445,0.17526531,86.7129,07/31.0/2016,2000,H 6.1,0.15
# From MPO351693
119976 2002 VR130,e,3.5215,181.9526,218.9380,23.96616,0.0084005,0.38409156,33.8903,07/31.0/2016,2000,H11.1,0.15
# From MPO245016
119979 2002 WC19,e,9.1793,109.7397,44.6767,47.91694,0.0029715,0.26415224,316.3019,07/31.0/2016,2000,H 4.9,0.15
# From MPO338101
120061 2003 CO1,e,19.7337,78.4494,116.3778,20.79553,0.0103932,0.47499205,37.5562,07/31.0/2016,2000,H 8.9,0.15
# From MPO375861
120132 2003 FY128,e,11.7585,341.6873,175.4866,49.85380,0.0028000,0.25601088,28.6531,07/31.0/2016,2000,H 4.9,0.15
# From MPO351695
120178 2003 OP32,e,27.2215,182.9267,67.3955,43.08639,0.0034849,0.10695238,72.1510,07/31.0/2016,2000,H 3.8,0.15
# From MPO202326
120181 2003 UR292,e,2.7199,146.5480,248.5378,32.23870,0.0053844,0.16977448,7.8137,07/31.0/2016,2000,H 7.3,0.15
# From MPO338102
120216 2004 EW95,e,29.2329,25.7019,204.3191,39.69951,0.0039403,0.32044919,357.7590,07/31.0/2016,2000,H 6.7,0.15
# From MPO338103
120347 Salacia,e,23.9331,280.0894,308.2430,41.87269,0.0036375,0.10952931,122.1867,07/31.0/2016,2000,H 4.0,0.15
# From MPO371918
120348 2004 TY364,e,24.8479,140.5911,0.7732,38.73069,0.0040890,0.06692812,265.6557,07/31.0/2016,2000,H 5.0,0.15
# From MPO375871
121725 1999 XX143,e,6.7724,103.7898,215.6860,17.99141,0.0129153,0.46035726,203.4791,07/31.0/2016,2000,H 8.6,0.15
# From MPO157303
123509 2000 WK183,e,1.9703,185.8316,294.6224,44.37304,0.0033345,0.04600206,327.3553,07/31.0/2016,2000,H 6.6,0.15
# From MPO351741
126154 2001 YH140,e,11.0746,108.8485,356.6501,42.52932,0.0035536,0.14331926,20.1800,07/31.0/2016,2000,H 5.5,0.15
# From MPO157304
126155 2001 YJ140,e,5.9713,319.5003,129.8921,39.53338,0.0039651,0.29410939,11.4905,07/31.0/2016,2000,H 7.3,0.15
# From MPO375902
126619 2002 CX154,e,15.9463,346.9248,161.8823,72.26124,0.0016045,0.47349694,12.7838,07/31.0/2016,2000,H 7.1,0.15
# From MPO338136
126719 2002 CC249,e,0.8355,248.4022,307.3234,47.44119,0.0030163,0.19890670,355.5633,07/31.0/2016,2000,H 6.7,0.15
# From MPO198805
127546 2002 XU93,e,77.9298,90.3437,28.2205,67.69472,0.0017696,0.68967622,5.0503,07/31.0/2016,2000,H 8.0,0.15
# From MPO273191
127871 2003 FC128,e,2.3719,78.5232,42.0400,35.17653,0.0047242,0.08789647,58.4057,07/31.0/2016,2000,H 7.0,0.15
# From MPO338151
129746 1999 CE119,e,1.4731,171.4947,34.9083,39.65496,0.0039469,0.27474902,6.1895,07/31.0/2016,2000,H 8.4,0.15
# From MPO371987
129772 1999 HR11,e,3.3009,83.3643,127.1572,43.96451,0.0033810,0.04076814,2.7200,07/31.0/2016,2000,H 7.2,0.15
# From MPO157305
130391 2000 JG81,e,23.4199,45.9153,169.7161,47.71600,0.0029903,0.28451101,21.7684,07/31.0/2016,2000,H 8.0,0.15
# From MPO341414
131318 2001 FL194,e,13.6723,2.0241,172.2800,39.65404,0.0039471,0.17987288,27.2409,07/31.0/2016,2000,H 7.8,0.15
# From MPO137902
